TDRS 3                  
1 19548U 88091B   23025.88085097 -.00000305  00000+0  00000+0 0  9997
2 19548  13.5506 349.6096 0040120 334.1468  69.2737  1.00265069112975
HST                     
1 20580U 90037B   23026.33129427  .00005435  00000+0  29994-3 0  9990
2 20580  28.4698 130.8872 0001968 289.2534 107.7208 15.11761078599960
TDRS 5                  
1 21639U 91054B   23026.16742104  .00000079  00000+0  00000+0 0  9992
2 21639  14.2188   2.9215 0027202 351.6004  23.4880  1.00279627115307
TDRS 6                  
1 22314U 93003B   23026.36810936 -.00000302  00000+0  00000+0 0  9990
2 22314  14.1436   6.1811 0007038 133.1311  72.6710  1.00276168109993
TDRS 7                  
1 23613U 95035B   23026.41507789 -.00000207  00000+0  00000+0 0  9999
2 23613  13.8907 356.8909 0025227  48.8593 313.8137  1.00276243100844
ISS (ZARYA)             
1 25544U 98067A   23026.66540993  .00024244  00000+0  42857-3 0  9999
2 25544  51.6455 309.5225 0004827 282.4220 149.1142 15.50183428379845
LANDSAT 7               
1 25682U 99020A   23026.33133678  .00000807  00000+0  17774-3 0  9993
2 25682  97.9509  70.6437 0001579  92.0517 268.0856 14.59900650265082
TERRA                   
1 25994U 99068A   23026.52879222  .00000781  00000+0  17599-3 0  9990
2 25994  98.1129  98.3251 0002452 127.5150 340.5485 14.59001299229005
TDRS 8                  
1 26388U 00034A   23026.56264733 -.00000242  00000+0  00000+0 0  9990
2 26388  10.7187  41.0012 0020938 329.1649  47.1854  1.00277457 82773
TIMED                   
1 26998U 01055B   23026.59456401  .00002114  00000+0  22781-3 0  9992
2 26998  74.0722 194.9640 0001392 319.3357  40.7720 14.89145023146218
TDRS 9                  
1 27389U 02011A   23025.16666667  .00000018  00000+0  00000+0 0  9996
2 27389   9.5050  58.4659 0000779 191.3235 188.9578  0.99159049 78012
AQUA                    
1 27424U 02022A   23026.56209892  .00001588  00000+0  35847-3 0  9990
2 27424  98.2729 331.6393 0000645  90.5532  24.5276 14.57628178102687
TDRS 10                 
1 27566U 02055A   23026.63280961  .00000082  00000+0  00000+0 0  9994
2 27566   8.6112  48.6870 0007297 315.6945 177.9505  1.00275387 73824
SORCE                   
1 27651U 03004A   23026.42473463  .00003566  00000+0  36857-3 0  9995
2 27651  39.9958  51.8485 0023096 242.4926 117.3516 14.90782650 86343
AURA                    
1 28376U 04026A   23026.53559262  .00001563  00000+0  35735-3 0  9998
2 28376  98.2350 331.9288 0000996  90.6647 269.4666 14.57049157985717
SWIFT                   
1 28485U 04047A   23026.57021337  .00008107  00000+0  47775-3 0  9991
2 28485  20.5560 182.2364 0009512 251.5661 108.3739 15.08344806997258
THEMIS A                
1 30580U 07004A   23026.10109674 -.00000287  00000+0  29533-1 0  9998
2 30580  12.2370 320.7332 8354875 212.8222 187.0500  0.87832662 30390
THEMIS D                
1 30797U 07004D   23024.65178241 -.00000287  00000+0  00000+0 0  9998
2 30797   8.2650 308.4984 8305984 228.2664 100.3188  0.87769905 30186
THEMIS E                
1 30798U 07004E   23024.26792601 -.00000277  00000+0  00000+0 0  9997
2 30798   9.4601 325.3933 8302938 213.2248 334.1471  0.87858780 55017
AIM                     
1 31304U 07015A   23026.08688470  .00025046  00000+0  10728-2 0  9994
2 31304  97.8637 319.3086 0003280   2.6293 357.4959 15.22768108865009
FGRST (GLAST)           
1 33053U 08029A   23026.29390578  .00004039  00000+0  20568-3 0  9998
2 33053  25.5836  86.8483 0011315 242.2817 117.6571 15.13025349807476
WISE                    
1 36119U 09071A   23026.58711706  .00014214  00000+0  39210-3 0  9994
2 36119  97.2159  61.6930 0001597 167.1159 193.0127 15.37199177729733
TDRS 11                 
1 39070U 13004A   23026.62839514  .00000077  00000+0  00000+0 0  9990
2 39070   2.7676 353.0686 0004318  41.6502 142.6852  1.00272850 34284
TDRS 12                 
1 39504U 14004A   23026.39576731 -.00000271  00000+0  00000+0 0  9993
2 39504   3.6948 351.5927 0000300 228.2215   7.1513  1.00273174 31860
GPM-CORE                
1 39574U 14009C   23026.59532961  .00035028  00000+0  49550-3 0  9998
2 39574  64.9980 148.7698 0012300 265.4687  94.5055 15.56265008506325
MMS 1                   
1 40482U 15011A   23024.79471402 -.00001815  00000+0  00000+0 0  9995
2 40482  29.3993  85.7735 8981886  74.1556  98.7012  0.28546878 13937
MMS 2                   
1 40483U 15011B   23024.81276957 -.00001814  00000+0  00000+0 0  9996
2 40483  29.3823  85.6003 8978396  74.2965 100.5117  0.28534357 13997
MMS 3                   
1 40484U 15011C   23024.82388068 -.00001813  00000+0  00000+0 0  9994
2 40484  29.3905  85.7708 8981506  74.1621 101.7119  0.28546988 13670
MMS 4                   
1 40485U 15011D   23026.72110291 -.00001853  00000+0  00000+0 0  9991
2 40485  29.2541  84.5212 8964043  75.3079 296.4554  0.28515654 13907
TDRS 13                 
1 42915U 17047A   23026.10535708 -.00000103  00000+0  00000+0 0  9995
2 42915   4.1754 335.9185 0013615 109.1660  66.3180  1.00271212 19939
JPSS-1                  
1 43013U 17073A   23026.51830579  .00000170  00000+0  10136-3 0  9991
2 43013  98.7402 326.8016 0001551  98.2054 261.9298 14.19550368268879
